NORAD_CAT_ID,OBJECT_NAME,OBJECT_TYPE,EPOCH,MEAN_MOTION,ECCENTRICITY,INCLINATION,RA_OF_ASC_NODE,ARG_OF_PERICENTER,MEAN_ANOMALY,BSTAR,MEAN_MOTION_DOT,MEAN_MOTION_DDOT,TLE_LINE0,TLE_LINE1,TLE_LINE2,SEMIMAJOR_AXIS,PERIOD,APOGEE,PERIGEE,DECAYED
56779.0,STARLINK-6231,PAYLOAD,2024-05-15 11:56:51,14.9835111,0.000275,69.9994,196.6022,275.0878,84.9968,0.00015448,1.752e-05,0.0,0 STARLINK-6231,1 56779U 23078N   24136.49781259  .00001752  00000-0  15448-3 0  9995,2 56779  69.9994 196.6022 0002750 275.0878  84.9968 14.98351110 54094,6950.128,96.106,573.904,570.081,0.0
56779.0,STARLINK-6231,PAYLOAD,2024-05-15 13:32:58,14.98352699,0.0002703,69.9995,196.4341,275.4707,84.6144,0.00017227,1.964e-05,0.0,0 STARLINK-6231,1 56779U 23078N   24136.56457017  .00001964  00000-0  17227-3 0  9997,2 56779  69.9995 196.4341 0002703 275.4707  84.6144 14.98352699 53837,6950.123,96.106,573.866,570.109,0.0
56779.0,STARLINK-6231,PAYLOAD,2024-05-15 21:33:40,14.98337946,0.0002021,70.0017,195.5918,279.2953,80.7977,5.5968e-05,5.75e-06,0.0,0 STARLINK-6231,1 56779U 23078N   24136.89838071  .00000575  00000-0  55968-4 0  9998,2 56779  70.0017 195.5918 0002021 279.2953  80.7977 14.98337946 53887,6950.168,96.106,573.438,570.629,0.0
56779.0,STARLINK-6231,PAYLOAD,2024-05-16 11:58:51,14.98344584,0.0002692,69.9997,194.0769,272.6475,87.4376,-5.355e-05,-7.32e-06,0.0,0 STARLINK-6231,1 56779U 23078N   24137.49921134 -.00000732  00000-0 -53550-4 0  9990,2 56779  69.9997 194.0769 0002692 272.6475  87.4376 14.98344584 53972,6950.148,96.106,573.884,570.142,0.0
56779.0,STARLINK-6231,PAYLOAD,2024-05-16 21:35:40,14.98343836,0.000273,69.9998,193.0672,272.9399,87.1447,-9.5531e-05,-1.233e-05,0.0,0 STARLINK-6231,1 56779U 23078N   24137.89976870 -.00001233  00000-0 -95531-4 0  9993,2 56779  69.9998 193.0672 0002730 272.9399  87.1447 14.98343836 54039,6950.15,96.106,573.912,570.118,0.0
56779.0,STARLINK-6231,PAYLOAD,2024-05-17 04:00:12,14.98321013,0.0002543,70.0003,192.3941,273.2271,86.8597,0.00012359,1.382e-05,0.0,0 STARLINK-6231,1 56779U 23078N   24138.16681260  .00001382  00000-0  12359-3 0  9999,2 56779  70.0003 192.3941 0002543 273.2271  86.8597 14.98321013 54344,6950.221,96.108,573.853,570.318,0.0
56779.0,STARLINK-6231,PAYLOAD,2024-05-17 12:00:52,14.98337059,0.00025,70.0,191.5529,267.3537,92.7336,-0.00011381,-1.451e-05,0.0,0 STARLINK-6231,1 56779U 23078N   24138.50060953 -.00001451  00000-0 -11381-3 0  9990,2 56779  70.0000 191.5529 0002500 267.3537  92.7336 14.98337059 54395,6950.171,96.107,573.774,570.299,0.0
56779.0,STARLINK-6231,PAYLOAD,2024-05-18 12:02:53,14.9833264,0.0002797,69.9998,189.0288,271.2587,88.8251,-6.7369e-05,-8.97e-06,0.0,0 STARLINK-6231,1 56779U 23078N   24139.50200825 -.00000897  00000-0 -67369-4 0  9996,2 56779  69.9998 189.0288 0002797 271.2587  88.8251 14.98332640 54549,6950.185,96.107,573.994,570.106,0.0
56779.0,STARLINK-6231,PAYLOAD,2024-05-18 13:39:01,14.98334246,0.0002894,69.9995,188.8602,269.7988,90.284,-5.0559e-05,-6.96e-06,0.0,0 STARLINK-6231,1 56779U 23078N   24139.56876634 -.00000696  00000-0 -50559-4 0  9999,2 56779  69.9995 188.8602 0002894 269.7988  90.2840 14.98334246 54284,6950.18,96.107,574.056,570.033,0.0
56779.0,STARLINK-6231,PAYLOAD,2024-05-19 04:04:15,14.98311434,0.0002492,70.0005,187.347,268.4572,91.6301,3.7819e-06,-4.8e-07,0.0,0 STARLINK-6231,1 56779U 23078N   24140.16962162 -.00000048  00000-0  37819-5 0  9994,2 56779  70.0005 187.3470 0002492 268.4572  91.6301 14.98311434 54646,6950.25,96.108,573.847,570.383,0.0
56779.0,STARLINK-6231,PAYLOAD,2024-05-19 12:04:55,14.98315271,0.0002575,70.0003,186.5055,263.3332,96.7534,-0.00012665,-1.603e-05,0.0,0 STARLINK-6231,1 56779U 23078N   24140.50342497 -.00001603  00000-0 -12665-3 0  9994,2 56779  70.0003 186.5055 0002575 263.3332  96.7534 14.98315271 54427,6950.238,96.108,573.893,570.314,0.0
56779.0,STARLINK-6231,PAYLOAD,2024-05-20 04:06:15,14.98328847,0.0003216,69.9985,184.82,273.4547,86.6245,2.3201e-05,1.84e-06,0.0,0 STARLINK-6231,1 56779U 23078N   24141.17101445  .00000184  00000-0  23201-4 0  9994,2 56779  69.9985 184.8200 0003216 273.4547  86.6245 14.98328847 54799,6950.196,96.107,574.297,569.826,0.0
56779.0,STARLINK-6231,PAYLOAD,2024-05-20 12:06:55,14.98335949,0.0003082,69.9988,183.9788,272.1608,87.9199,0.00010484,1.158e-05,0.0,0 STARLINK-6231,1 56779U 23078N   24141.50480748  .00001158  00000-0  10484-3 0  9997,2 56779  69.9988 183.9788 0003082 272.1608  87.9199 14.98335949 54847,6950.174,96.107,574.182,569.897,0.0
56779.0,STARLINK-6231,PAYLOAD,2024-05-21 04:08:16,14.98322451,0.0002941,69.9991,182.2957,268.9018,91.1804,0.00010323,1.139e-05,0.0,0 STARLINK-6231,1 56779U 23078N   24142.17241645  .00001139  00000-0  10323-3 0  9993,2 56779  69.9991 182.2957 0002941 268.9018  91.1804 14.98322451 54947,6950.216,96.107,574.125,570.037,0.0
56779.0,STARLINK-6231,PAYLOAD,2024-05-21 12:08:57,14.98321958,0.0002971,69.9992,181.4542,269.24,90.8418,8.1866e-05,8.84e-06,0.0,0 STARLINK-6231,1 56779U 23078N   24142.50621864  .00000884  00000-0  81866-4 0  9992,2 56779  69.9992 181.4542 0002971 269.2400  90.8418 14.98321958 54725,6950.218,96.108,574.148,570.018,0.0
56779.0,STARLINK-6231,PAYLOAD,2024-05-22 04:10:17,14.98337631,0.000302,69.999,179.7709,268.5296,91.5517,-2.9843e-05,-4.49e-06,0.0,0 STARLINK-6231,1 56779U 23078N   24143.17381170 -.00000449  00000-0 -29843-4 0  9995,2 56779  69.9990 179.7709 0003020 268.5296  91.5517 14.98337631 55093,6950.169,96.107,574.133,569.935,0.0
56779.0,STARLINK-6231,PAYLOAD,2024-05-22 12:10:57,14.98338182,0.0003025,69.999,178.9292,269.1555,90.9258,-1.7675e-05,-3.04e-06,0.0,0 STARLINK-6231,1 56779U 23078N   24143.50760932 -.00000304  00000-0 -17675-4 0  9999,2 56779  69.9990 178.9292 0003025 269.1555  90.9258 14.98338182 54873,6950.168,96.106,574.135,569.93,0.0
56779.0,STARLINK-6231,PAYLOAD,2024-05-23 04:12:19,14.98315409,0.0002762,69.9998,177.2481,260.7702,99.3145,-0.00010369,-1.329e-05,0.0,0 STARLINK-6231,1 56779U 23078N   24144.17522803 -.00001329  00000-0 -10369-3 0  9996,2 56779  69.9998 177.2481 0002762 260.7702  99.3145 14.98315409 55248,6950.238,96.108,574.023,570.183,0.0
56779.0,STARLINK-6231,PAYLOAD,2024-05-23 10:36:50,14.98333886,0.00031,69.999,176.5728,253.9099,106.1719,6.4239e-05,6.74e-06,0.0,0 STARLINK-6231,1 56779U 23078N   24144.44225238  .00000674  00000-0  64239-4 0  9994,2 56779  69.9990 176.5728 0003100 253.9099 106.1719 14.98333886 55283,6950.181,96.107,574.2,569.891,0.0
56779.0,STARLINK-6231,PAYLOAD,2024-05-23 12:12:58,14.98339231,0.0003049,69.9989,176.4042,263.0953,96.986,0.00013357,1.501e-05,0.0,0 STARLINK-6231,1 56779U 23078N   24144.50900716  .00001501  00000-0  13357-3 0  9996,2 56779  69.9989 176.4042 0003049 263.0953  96.9860 14.98339231 55027,6950.164,96.106,574.148,569.91,0.0
56779.0,STARLINK-6231,PAYLOAD,2024-05-24 12:14:59,14.98336699,0.0002912,69.9989,173.8797,262.8548,97.228,2.2487e-05,1.75e-06,0.0,0 STARLINK-6231,1 56779U 23078N   24145.51040814  .00000175  00000-0  22487-4 0  9993,2 56779  69.9989 173.8797 0002912 262.8548  97.2280 14.98336699 55441,6950.172,96.107,574.061,570.013,0.0
56779.0,STARLINK-6231,PAYLOAD,2024-05-24 18:39:31,14.98336231,0.0002459,70.0002,173.2045,266.7012,93.3866,-6.2237e-05,-8.36e-06,0.0,0 STARLINK-6231,1 56779U 23078N   24145.77745062 -.00000836  00000-0 -62237-4 0  9991,2 56779  70.0002 173.2045 0002459 266.7012  93.3866 14.98336231 55219,6950.174,96.107,573.748,570.33,0.0
56779.0,STARLINK-6231,PAYLOAD,2024-05-25 04:16:20,14.98320378,0.0002852,69.9992,172.1966,263.5738,96.5096,0.00013704,1.542e-05,0.0,0 STARLINK-6231,1 56779U 23078N   24146.17801531  .00001542  00000-0  13704-3 0  9997,2 56779  69.9992 172.1966 0002852 263.5738  96.5096 14.98320378 55542,6950.223,96.108,574.07,570.105,0.0
56779.0,STARLINK-6231,PAYLOAD,2024-05-25 12:17:01,14.98320401,0.0002825,69.9989,171.3549,262.854,97.2298,0.0001107,1.228e-05,0.0,0 STARLINK-6231,1 56779U 23078N   24146.51181731  .00001228  00000-0  11070-3 0  9993,2 56779  69.9989 171.3549 0002825 262.8540  97.2298 14.98320401 55324,6950.223,96.108,574.051,570.124,0.0
56779.0,STARLINK-6231,PAYLOAD,2024-05-25 18:41:32,14.98331624,0.0002446,70.0009,170.6795,249.1316,110.9581,2.8746e-05,2.5e-06,0.0,0 STARLINK-6231,1 56779U 23078N   24146.77885256  .00000250  00000-0  28746-4 0  9997,2 56779  70.0009 170.6795 0002446 249.1316 110.9581 14.98331624 55634,6950.188,96.107,573.753,570.353,0.0
56779.0,STARLINK-6231,PAYLOAD,2024-05-26 10:42:53,14.98333371,0.0002934,69.9988,168.9977,262.3729,97.7097,-1.1019e-05,-2.24e-06,0.0,0 STARLINK-6231,1 56779U 23078N   24147.44644863 -.00000224  00000-0 -11019-4 0  9997,2 56779  69.9988 168.9977 0002934 262.3729  97.7097 14.98333371 55462,6950.182,96.107,574.087,570.008,0.0
56779.0,STARLINK-6231,PAYLOAD,2024-05-27 04:20:21,14.98333546,0.0002822,69.9992,167.1471,264.0847,95.9991,-4.1558e-05,-5.89e-06,0.0,0 STARLINK-6231,1 56779U 23078N   24148.18080832 -.00000589  00000-0 -41558-4 0  9994,2 56779  69.9992 167.1471 0002822 264.0847  95.9991 14.98333546 55842,6950.182,96.107,574.008,570.086,0.0
56779.0,STARLINK-6231,PAYLOAD,2024-05-27 10:44:54,14.98327252,0.0002997,69.9987,166.4734,265.8112,94.2704,8.4129e-06,7e-08,0.0,0 STARLINK-6231,1 56779U 23078N   24148.44785105  .00000007  00000-0  84129-5 0  9993,2 56779  69.9987 166.4734 0002997 265.8112  94.2704 14.98327252 55613,6950.201,96.107,574.149,569.983,0.0
56779.0,STARLINK-6231,PAYLOAD,2024-05-27 18:45:34,14.98328396,0.0003047,69.9986,165.6311,268.2334,91.8476,-1.4675e-05,-2.68e-06,0.0,0 STARLINK-6231,1 56779U 23078N   24148.78165115 -.00000268  00000-0 -14675-4 0  9992,2 56779  69.9986 165.6311 0003047 268.2334  91.8476 14.98328396 55668,6950.198,96.107,574.181,569.945,0.0
56779.0,STARLINK-6231,PAYLOAD,2024-05-28 04:22:22,14.98333488,0.0003136,69.9984,164.621,267.8008,92.2792,-7.6975e-06,-1.85e-06,0.0,0 STARLINK-6231,1 56779U 23078N   24149.18220664 -.00000185  00000-0 -76975-5 0  9998,2 56779  69.9984 164.6210 0003136 267.8008  92.2792 14.98333488 55995,6950.182,96.107,574.227,569.868,0.0
